IDEFIX & ARIANE 42P R/B 
1 27422U 02021B   25353.43574108  .00000201  00000+0  92979-4 0  9994
2 27422  98.5795 288.0399 0012900  65.6667 294.5861 14.30954868232548
AQUA                    
1 27424U 02022A   25353.80385887  .00000725  00000+0  15510-3 0  9998
2 27424  98.4046 314.7980 0001348 112.3467 286.6091 14.61824191257063
CZ-4B R/B               
1 27432U 02024C   25353.14530247  .00000045  00000+0  46456-4 0  9997
2 27432  98.8990  41.8945 0049216 251.3537 129.9043 14.14529169217855
MIDORI II (ADEOS-II)    
1 27597U 02056A   25353.43623037  .00000178  00000+0  87748-4 0  9992
2 27597  98.7646 306.4279 0000537 150.4807 209.6405 14.29209903198837
H-2A R/B                
1 27601U 02056E   25353.46064259  .00000265  00000+0  10742-3 0  9992
2 27601  98.3075 311.9500 0071193  41.4111  72.6501 14.33681545202614
CZ-4B R/B               
1 28059U 03049C   25353.88555467  .00000284  00000+0  76746-4 0  9993
2 28059  98.6791 340.7195 0049284 114.6636 245.9703 14.54915691174994
CZ-2C R/B               
1 28222U 04012C   25353.87879478  .00028569  00000+0  40873-3 0  9993
2 28222  97.7413  47.0924 0016498 242.4525 117.5053 15.56023692191830
SL-16 R/B               
1 28353U 04021B   25353.41001580 -.00000098  00000+0 -25995-4 0  9997
2 28353  71.0008  40.9677 0004941 189.0180 171.0854 14.14578815111482
CZ-4B R/B               
1 28415U 04035C   25353.04706086  .00006889  00000+0  25537-3 0  9996
2 28415  97.3596  23.3072 0031543 253.8650 105.9116 15.27470451167590
CZ-2C R/B               
1 28480U 04046B   25353.26970788  .00000162  00000+0  75166-4 0  9998
2 28480  98.1994 268.2417 0140210  33.1154 327.8709 14.26944182 97035
ARIANE 5 R/B            
1 28499U 04049H   25353.92960790  .00000818  00000+0  97337-4 0  9998
2 28499  98.2526 154.4689 0083341 249.3040 109.9225 14.85028435133953
CZ-2D R/B               
1 28738U 05024B   25353.74345824  .00022410  00000+0  35304-3 0  9990
2 28738  97.3622   1.3759 0004369 340.5174  19.5912 15.53572213127348
